[ 
    {
        "tleLine1": "1 11672U 80005B   16097.63473038  .00000174  00000-0  16294-4 0  9995", 
        "name": "SL-14 R/B", 
        "norad_id": 11672, 
        "tleLine2": "2 11672  82.5139 131.3951 0015916 331.1841  28.8495 14.87769958958487", 
        "state": "operational", 
        "transmitters": [], 
        "type": "visible"
    }, 
    {
        "tleLine1": "1 28059U 03049C   16097.21823998  .00000047  00000-0  23241-4 0  9992", 
        "name": "CZ-4B R/B", 
        "norad_id": 28059, 
        "tleLine2": "2 28059  98.6231 326.8938 0050969 138.0442 331.3347 14.52434153660249", 
        "state": "operational", 
        "transmitters": [], 
        "type": "visible"
    }, 
    {
        "tleLine1": "1 15772U 85042D   16097.82762574 -.00000040  00000-0  34235-5 0  9992", 
        "name": "SL-12 R/B(2)", 
        "norad_id": 15772, 
        "tleLine2": "2 15772  71.1082 176.4077 0035480 357.8337 141.3536 14.21166373599450", 
        "state": "operational", 
        "transmitters": [], 
        "type": "visible"
    }, 
    {
        "tleLine1": "1 29601U 06052A   16097.02546113 -.00000063  00000-0  00000+0 0  9995", 
        "name": "GPS BIIRM-3 (PRN 12)", 
        "norad_id": 29601, 
        "tleLine2": "2 29601  56.7436   0.8207 0058992  38.7799 321.6740  2.00554355 68763", 
        "state": "operational", 
        "transmitters": [], 
        "type": "sarsat, gps-ops"
    }, 
    {
        "tleLine1": "1 31793U 07029B   16097.79765704 -.00000326  00000-0 -14561-3 0  9992", 
        "name": "SL-16 R/B", 
        "norad_id": 31793, 
        "tleLine2": "2 31793  70.9753 225.7825 0002023 270.5555 195.9075 14.14355066453017", 
        "state": "operational", 
        "transmitters": [], 
        "type": "visible"
    }, 
    {
        "tleLine1": "1 35752U 09043A   16097.34040547  .00000022  00000-0  00000+0 0  9991", 
        "name": "GPS BIIRM-8 (PRN 05)", 
        "norad_id": 35752, 
        "tleLine2": "2 35752  54.2222 177.2271 0044718  24.0074  65.3708  2.00552636 48650", 
        "state": "operational", 
        "transmitters": [], 
        "type": "gps-ops"
    }, 
    {
        "tleLine1": "1 28939U 06005A   16097.47020402  .00006023  00000-0  20492-3 0  9995", 
        "name": "AKARI (ASTRO-F)", 
        "norad_id": 28939, 
        "tleLine2": "2 28939  98.2300 246.8817 0115600 256.8939 101.9374 15.24653923546477", 
        "state": "operational", 
        "transmitters": [], 
        "type": "visible"
    }, 
    {
        "tleLine1": "1 20466U 90010B   16097.85166097  .00000143  00000-0  15296-4 0  9998", 
        "name": "SL-14 R/B", 
        "norad_id": 20466, 
        "tleLine2": "2 20466  82.5032  60.8401 0019908 335.8357  24.1921 14.81206838412906", 
        "state": "operational", 
        "transmitters": [], 
        "type": "visible"
    }, 
    {
        "tleLine1": "1 27566U 02055A   16096.11373592  .00000068  00000-0  00000-0 0  9995", 
        "name": "TDRS 10", 
        "norad_id": 27566, 
        "tleLine2": "2 27566   4.2682  60.3827 0009461 232.5893 127.4764  1.00276157 48886", 
        "state": "operational", 
        "transmitters": [], 
        "type": "tdrss, geostationary"
    }, 
    {
        "tleLine1": "1 21423U 91042B   16096.86817679  .00000121  00000-0  13131-4 0  9999", 
        "name": "SL-14 R/B", 
        "norad_id": 21423, 
        "tleLine2": "2 21423  82.4969  10.0671 0016273 240.5702 119.3887 14.79622309337919", 
        "state": "operational", 
        "transmitters": [], 
        "type": "visible"
    }, 
    {
        "tleLine1": "1 38833U 12053A   16096.93718780 -.00000007  00000-0  00000+0 0  9998", 
        "name": "GPS BIIF-3  (PRN 24)", 
        "norad_id": 38833, 
        "tleLine2": "2 38833  54.4362 296.5791 0043052  20.3899 339.8050  2.00568883 25651", 
        "state": "operational", 
        "transmitters": [], 
        "type": "sarsat, gps-ops"
    }, 
    {
        "tleLine1": "1 21938U 92020B   16097.81616988  .00000119  00000-0  10871-3 0  9997", 
        "name": "SL-8 R/B", 
        "norad_id": 21938, 
        "tleLine2": "2 21938  82.9300 324.4330 0028608 332.1864  77.7680 13.75236065203319", 
        "state": "operational", 
        "transmitters": [], 
        "type": "visible"
    }, 
    {
        "tleLine1": "1 03230U 68040B   16097.87602654  .00000548  00000-0  60685-4 0  9993", 
        "name": "SL-8 R/B", 
        "norad_id": 3230, 
        "tleLine2": "2 03230  74.0373  36.1700 0029390 105.2702 255.1732 14.89798792570530", 
        "state": "operational", 
        "transmitters": [], 
        "type": "visible"
    }, 
    {
        "tleLine1": "1 26038U 99071A   16097.01182662  .00000073  00000-0  00000+0 0  9993", 
        "name": "GALAXY 11 (G-11)", 
        "norad_id": 26038, 
        "tleLine2": "2 26038   0.0512  62.2518 0011941 248.8269 295.3539  1.00542531 59762", 
        "state": "operational", 
        "transmitters": [], 
        "type": "intelsat, geostationary"
    }, 
    {
        "tleLine1": "1 15945U 85069B   16097.19259030  .00000154  00000-0  15690-4 0  9999", 
        "name": "SL-14 R/B", 
        "norad_id": 15945, 
        "tleLine2": "2 15945  82.5303 182.2411 0018244 285.2598  74.6600 14.83844504656229", 
        "state": "operational", 
        "transmitters": [], 
        "type": "visible"
    }, 
    {
        "tleLine1": "1 40376U 15003A   16097.94494811  .00000149  00000-0  37958-4 0  9992", 
        "name": "SMAP", 
        "norad_id": 40376, 
        "tleLine2": "2 40376  98.1237 106.0522 0001442  87.2843 272.8528 14.63380963 63096", 
        "state": "operational", 
        "transmitters": [], 
        "type": "resource"
    }, 
    {
        "tleLine1": "1 06073U 72023E   16097.81654871  .00035933  52719-5  18045-3 0  9996", 
        "name": "COSMOS 482 DESCENT CRAFT", 
        "norad_id": 6073, 
        "tleLine2": "2 06073  52.0626  31.9428 1643037  24.8106 342.3452 12.42260249306319", 
        "state": "operational", 
        "transmitters": [], 
        "type": "visible"
    }, 
    {
        "tleLine1": "1 26554U 00059A   16097.67609942 -.00000364  00000-0  00000+0 0  9995", 
        "name": "NSS-11 (AAP-1)", 
        "norad_id": 26554, 
        "tleLine2": "2 26554   0.0522  53.4303 0002335 358.7307 134.7972  1.00269039 56865", 
        "state": "operational", 
        "transmitters": [], 
        "type": "geostationary"
    }, 
    {
        "tleLine1": "1 37820U 11053A   16097.90842631  .00016927  00000-0  20079-3 0  9992", 
        "name": "TIANGONG 1", 
        "norad_id": 37820, 
        "tleLine2": "2 37820  42.7644 313.0505 0013927 273.1137 220.5554 15.60797187259439", 
        "state": "operational", 
        "transmitters": [], 
        "type": "visible, stations"
    }, 
    {
        "tleLine1": "1 14781U 84021B   16097.16308956  .00000237  00000-0  35719-4 0  9998", 
        "name": "UOSAT 2 (UO-11)", 
        "norad_id": 14781, 
        "tleLine2": "2 14781  97.7580 151.3391 0008488 180.5296 179.5910 14.82710924725588", 
        "state": "operational", 
        "transmitters": [
            {
                "baud": 1200.0, 
                "downlink_low": 145825000, 
                "mode": "AFSK1k2", 
                "description": "1k2 AFSK TLM"
            }
        ], 
        "type": "amateur"
    }, 
    {
        "tleLine1": "1 36287U 10001A   16097.36716700 -.00000302  00000-0  10000-3 0  9991", 
        "name": "BEIDOU G1", 
        "norad_id": 36287, 
        "tleLine2": "2 36287   1.5952  12.6201 0003011 185.7875 268.8756  1.00269684 22831", 
        "state": "operational", 
        "transmitters": [], 
        "type": "geostationary, beidou"
    }, 
    {
        "tleLine1": "1 32711U 08012A   16096.75633498 -.00000004  00000-0  00000+0 0  9996", 
        "name": "GPS BIIRM-6 (PRN 07)", 
        "norad_id": 32711, 
        "tleLine2": "2 32711  55.4049 299.2381 0093180 207.4958 152.0355  2.00565093 59064", 
        "state": "operational", 
        "transmitters": [], 
        "type": "gps-ops"
    }, 
    {
        "tleLine1": "1 25544U 98067A   16097.92258378  .00006005  00000-0  96993-4 0  9998", 
        "name": "ISS (ZARYA)", 
        "norad_id": 25544, 
        "tleLine2": "2 25544  51.6439  53.4688 0002488  46.5537  18.5075 15.54384968993893", 
        "state": "operational", 
        "transmitters": [
            {
                "description": "Mode V/V AFSK Packet", 
                "uplink_low": 145990000, 
                "downlink_low": 145800000, 
                "mode": "AFSK1k2", 
                "invert": true
            }, 
            {
                "description": "Mode V/U FM Voice", 
                "uplink_low": 145800000, 
                "downlink_low": 437800000, 
                "mode": "FM", 
                "invert": true
            }, 
            {
                "description": "Mode V APRS", 
                "uplink_low": 145825000, 
                "downlink_low": 145825000, 
                "mode": "FM", 
                "invert": true
            }, 
            {
                "invert": true, 
                "downlink_low": 145800000, 
                "mode": "SSTV", 
                "description": "Mode V Imaging"
            }, 
            {
                "description": "Mode U/V FM Voice", 
                "uplink_low": 437800000, 
                "downlink_low": 145800000, 
                "mode": "FM", 
                "invert": true
            }, 
            {
                "description": "Mode V/V FM (crew R2+3)", 
                "uplink_low": 144490000, 
                "downlink_low": 145800000, 
                "mode": "FM", 
                "invert": true
            }, 
            {
                "description": "Mode V/V FM (crew R1)", 
                "uplink_low": 145200000, 
                "downlink_low": 145800000, 
                "mode": "FM", 
                "invert": true
            }
        ], 
        "type": "visible, tdrss, stations, amateur"
    }
]